{
    "links": {
        "self": "http://www.neowsapp.com/rest/v1/neo/3402636?api_key=iIulBulltgU6a56xZRHN4H3l9WmuAYTsLGpBGhQ2"
    },
    "id": "3402636",
    "neo_reference_id": "3402636",
    "name": "(2008 CW118)",
    "designation": "2008 CW118",
    "nasa_jpl_url": "http://ssd.jpl.nasa.gov/sbdb.cgi?sstr=3402636",
    "absolute_magnitude_h": 25.0,
    "estimated_diameter": {
        "kilometers": {
            "estimated_diameter_min": 0.02658,
            "estimated_diameter_max": 0.0594346868
        },
        "meters": {
            "estimated_diameter_min": 26.58,
            "estimated_diameter_max": 59.4346868419
        },
        "miles": {
            "estimated_diameter_min": 0.0165160412,
            "estimated_diameter_max": 0.0369309908
        },
        "feet": {
            "estimated_diameter_min": 87.2047272,
            "estimated_diameter_max": 194.9956979785
        }
    },
    "is_potentially_hazardous_asteroid": false,
    "close_approach_data": [
        {
            "close_approach_date": "2008-01-12",
            "close_approach_date_full": "2008-Jan-12 10:28",
            "epoch_date_close_approach": 1200133680000,
            "relative_velocity": {
                "kilometers_per_second": "4.9722608012",
                "kilometers_per_hour": "17900.1388841626",
                "miles_per_hour": "11122.4501861065"
            },
            "miss_distance": {
                "astronomical": "0.0775655287",
                "lunar": "30.1729906643",
                "kilometers": "11603637.878943869",
                "miles": "7210166.2381246322"
            },
            "orbiting_body": "Earth"
        }
    ],
    "orbital_data": {
        "orbit_id": "6",
        "orbit_determination_date": "2017-04-06 09:04:20",
        "first_observation_date": "2008-02-10",
        "last_observation_date": "2008-02-11",
        "data_arc_in_days": 1,
        "observations_used": 17,
        "orbit_uncertainty": "9",
        "minimum_orbit_intersection": ".0675378",
        "jupiter_tisserand_invariant": "3.970",
        "epoch_osculation": "2454507.5",
        "eccentricity": ".4148703381633593",
        "semi_major_axis": "1.792665261743621",
        "inclination": "2.278038414882731",
        "ascending_node_longitude": "127.7834109758598",
        "orbital_period": "876.692378577526",
        "perihelion_distance": "1.048941618390338",
        "perihelion_argument": "334.221607397929",
        "aphelion_distance": "2.536388905096904",
        "perihelion_time": "2454471.061902758733",
        "mean_anomaly": "14.96273416696085",
        "mean_motion": ".4106343442657922",
        "equinox": "J2000",
        "orbit_class": {
            "orbit_class_type": "AMO",
            "orbit_class_description": "Near-Earth asteroid orbits similar to that of 1221 Amor",
            "orbit_class_range": "1.017 AU < q (perihelion) < 1.3 AU"
        }
    },
    "is_sentry_object": false
}